208P/McMillan,e,4.4021,36.1929,311.2835,4.053565,0.1207670,0.37482264,66.7196,03/01.0/2026,2000,g 12.5,4.0
# From MPC191612
209P/LINEAR,e,21.2863,62.7516,152.4743,2.957155,0.1938175,0.67416834,115.2200,03/01.0/2026,2000,g 17.0,2.0
# From MPC191612
210P/Christensen,e,10.2873,93.7965,345.9483,3.160160,0.1754448,0.83405449,17.2417,03/01.0/2026,2000,g 13.5,4.0
# From MPC191612
211P/Hill,e,18.9265,117.1001,4.3778,3.548739,0.1474324,0.34459498,183.1685,03/01.0/2026,2000,g 12.5,4.0
# From MPC191612
212P/NEAT,e,22.1490,97.9716,14.0885,3.904360,0.1277554,0.58675040,86.2085,03/01.0/2026,2000,g 17.0,2.0
# From MPC191612
213P/VanNess,e,10.6625,310.3352,7.6873,3.363244,0.1597962,0.41443366,132.7235,03/01.0/2026,2000,g 10.5,4.0
# From MPEC 2025-GB9
213P-B/Van Ness,e,10.6616,310.3328,7.7021,3.363030,0.1598115,0.41432588,132.7562,03/01.0/2026,2000,g 17.0,4.0
# From MPC 76570
213P-C/Van Ness,e,10.4107,3.6676,313.9097,3.357688,0.1601930,0.41177412,133.9429,03/01.0/2026,2000,g 17.5,4.0
# From MPC 76571
213P-D/Van Ness,e,10.2589,312.6950,4.1428,3.408406,0.1566308,0.37502761,359.9537,06/18.0/2011,2000,g 17.5,4.0
# From MPC191612
214P/LINEAR,e,15.1955,348.2253,190.1107,3.615708,0.1433554,0.48658893,179.3568,03/01.0/2026,2000,g 13.0,4.0
# From MPC191612
215P/NEAT,e,10.5757,56.6825,262.1292,4.337152,0.1091182,0.16483929,251.0365,03/01.0/2026,2000,g 11.0,4.0
# From MPC191612
216P/LINEAR,e,9.0624,359.7633,151.7998,3.860754,0.1299260,0.44915528,101.8415,03/01.0/2026,2000,g 13.0,4.0
# From MPC191613
217P/LINEAR,e,12.8696,125.3679,247.0246,3.947128,0.1256847,0.68947434,35.1913,03/01.0/2026,2000,g 12.0,4.0
# From MPC191613
218P/LINEAR,e,2.7267,174.7143,61.4149,3.059810,0.1841460,0.63090060,359.3909,03/01.0/2026,2000,g 16.0,4.0
# From MPC191613
219P/LINEAR,e,11.4218,230.1937,108.8069,3.661250,0.1406889,0.35849731,104.4225,03/01.0/2026,2000,g 11.0,4.0
# From MPC191613
220P/McNaught,e,8.1207,150.0844,180.5680,3.120830,0.1787718,0.50036375,341.2059,03/01.0/2026,2000,g 15.0,4.0
# From MPC191613
221P/LINEAR,e,10.3317,221.9990,46.5477,3.380771,0.1585552,0.52295805,238.9612,03/01.0/2026,2000,g 14.5,4.0
# From MPC191613
222P/LINEAR,e,5.1003,6.7203,346.2805,2.895234,0.2000684,0.71496256,131.4775,03/01.0/2026,2000,g 20.0,4.0
# From MPC191613
223P/Skiff,e,27.0066,346.6891,37.9905,4.158238,0.1162358,0.41608052,300.6173,03/01.0/2026,2000,g 12.0,4.0
# From MPC191613
224P/LINEAR-NEAT,e,13.2976,40.0371,16.8360,3.447908,0.1539468,0.40528846,192.1229,03/01.0/2026,2000,g 15.5,4.0
# From MPC191613
225P/LINEAR,e,21.3559,14.2151,3.9027,3.647626,0.1414779,0.63793958,132.4802,03/01.0/2026,2000,g 18.0,4.0
# From MPC191613
226P/Pigott-LINEAR-Kowalski,e,44.0416,54.0199,341.0404,3.765618,0.1348807,0.52862914,107.2432,03/01.0/2026,2000,g 12.5,4.0
# From MPC191614
227P/Catalina-LINEAR,e,7.5064,36.7850,105.6210,3.438026,0.1546110,0.52781591,111.7130,03/01.0/2026,2000,g 16.5,2.0
# From MPC191614
228P/LINEAR,e,7.9175,30.9493,114.9013,4.160554,0.1161388,0.17773661,253.2367,03/01.0/2026,2000,g 14.5,2.0
# From MPC191614
229P/Gibbs,e,26.1052,157.8356,224.3466,3.928229,0.1265928,0.37864277,45.5561,03/01.0/2026,2000,g 13.0,4.0
# From MPC191614
230P/LINEAR,e,15.4730,106.9238,313.5934,3.455451,0.1534430,0.54523378,221.3056,03/01.0/2026,2000,g 13.0,4.0
# From MPC191614
231P/LINEAR-NEAT,e,12.2768,132.7417,43.3497,4.068673,0.1200950,0.23996716,297.5657,03/01.0/2026,2000,g 14.5,2.0
# From MPC191614
232P/Hill,e,14.6431,55.9913,53.3728,4.468628,0.1043381,0.33623674,262.4700,03/01.0/2026,2000,g 11.5,4.0
# From MPC191614
233P/LaSagra,e,11.2893,74.9174,26.9770,3.027778,0.1870759,0.41318357,9.7131,03/01.0/2026,2000,g 15.0,4.0
# From MPC191614
234P/LINEAR,e,11.5331,179.5537,357.4850,3.799196,0.1330965,0.25749155,65.6372,03/01.0/2026,2000,g 12.0,4.0
# From MPC191614
235P/LINEAR,e,9.8131,200.1703,352.2011,3.445705,0.1540944,0.42598151,10.5271,03/01.0/2026,2000,g 12.0,4.0
# From MPC191614
236P/LINEAR,e,16.3359,245.5109,119.5121,3.730406,0.1367949,0.51014694,53.3380,03/01.0/2026,2000,g 14.0,4.0
# From MPC191615
237P/LINEAR,e,13.9936,245.3525,25.5831,3.520097,0.1492355,0.43133691,152.6537,03/01.0/2026,2000,g 14.5,2.0
# From MPC191615
238P/Read,e,1.2635,51.6512,324.2381,3.168335,0.1747662,0.25031606,238.6699,03/01.0/2026,2000,g 14.5,4.0
# From MPC191615
239P/LINEAR,e,11.3049,255.9168,220.4282,4.462547,0.1045514,0.63162576,272.2094,03/01.0/2026,2000,g 17.5,2.0
# From MPC191615
240P/NEAT,e,23.5349,74.9113,352.0762,3.862450,0.1298404,0.45070015,9.2255,03/01.0/2026,2000,g 11.0,4.0
# From MPEC 2026-A90
240P-B/NEAT,e,23.5334,74.9118,352.0649,3.861962,0.1298650,0.45063061,9.2247,03/01.0/2026,2000,g 15.5,4.0
# From MPC191615
241P/LINEAR,e,21.0945,305.3612,111.6917,4.929141,0.0900632,0.60979349,151.2202,03/01.0/2026,2000,g 13.5,4.0
# From MPC191615
242P/Spahr,e,32.4379,180.1514,245.0852,5.537586,0.0756351,0.28271071,32.7104,03/01.0/2026,2000,g  8.0,4.0
# From MPC191615
243P/NEAT,e,7.6444,87.5747,283.7913,3.825348,0.1317339,0.36006062,0.4475,03/01.0/2026,2000,g 12.5,4.0
# From MPC191615
244P/Scotti,e,2.2570,353.9985,93.6398,4.906698,0.0906818,0.19964508,108.4806,03/01.0/2026,2000,g  9.0,4.0
# From MPC191615
245P/WISE,e,21.1711,316.6657,316.6989,4.054249,0.1207365,0.45597079,356.3623,03/01.0/2026,2000,g 14.0,4.0
# From MPC191616
246P/NEAT,e,17.2068,73.9343,184.8389,4.334146,0.1092317,0.21052022,213.6906,03/01.0/2026,2000,g 10.5,4.0
# From MPC191616
247P/LINEAR,e,13.6594,53.9964,47.5218,3.962429,0.1249574,0.62559584,330.1386,03/01.0/2026,2000,g 16.5,2.0
# From MPC191616
248P/Gibbs,e,6.3506,207.7691,210.0138,5.991466,0.0672054,0.63989199,11.2271,03/01.0/2026,2000,g 14.0,4.0
# From MPC191616
249P/LINEAR,e,8.3345,238.7345,66.1520,2.771978,0.2135598,0.81929258,83.7440,03/01.0/2026,2000,g 15.5,4.0
# From MPC191616
250P/Larson,e,13.1518,73.3002,45.7081,3.775567,0.1343479,0.39811633,38.7308,03/01.0/2026,2000,g 14.5,4.0
# From MPC191616
251P/LINEAR,e,23.3912,219.3366,31.1651,3.510968,0.1498179,0.50416867,111.9119,03/01.0/2026,2000,g 16.5,2.0
# From MPC191616
252P/LINEAR,e,10.4207,190.9072,343.3686,3.051802,0.1848713,0.67118606,313.4538,03/01.0/2026,2000,g 17.5,4.0
# From MPC191616
253P/PANSTARRS,e,4.9527,146.7895,230.7193,3.462295,0.1529882,0.41589673,75.8874,03/01.0/2026,2000,g 14.5,4.0
# From MPC191616
254P/McNaught,e,32.5357,129.1747,219.6815,4.620905,0.0992233,0.31825099,196.5566,03/01.0/2026,2000,g 11.0,4.0
# From MPC191616
255P/Levy,e,13.4261,275.6455,186.0395,2.941801,0.1953368,0.71202561,248.0510,03/01.0/2026,2000,g 20.0,4.0
# From MPC191617
256P/LINEAR,e,27.6224,81.3096,124.0407,4.633725,0.0988118,0.41828162,107.2013,03/01.0/2026,2000,g 14.0,2.0
# From MPC191617
257P/Catalina,e,20.2127,207.7331,117.6840,3.769006,0.1346988,0.42868191,269.5361,03/01.0/2026,2000,g 11.5,4.0
# From MPC191617
258P/PANSTARRS,e,6.7511,126.2355,25.6791,4.387218,0.1072557,0.20989961,223.0544,03/01.0/2026,2000,g 13.0,4.0
# From MPC191617
259P/Garradd,e,15.8961,51.4360,257.3822,2.729914,0.2185147,0.33876887,324.1690,03/01.0/2026,2000,g 15.5,4.0
# From MPC191617
260P/McNaught,e,15.0391,349.2727,18.5145,3.623542,0.1428908,0.60868938,337.5649,03/01.0/2026,2000,g 13.5,4.0
# From MPC191617
261P/Larson,e,6.0734,291.0500,67.3676,3.488482,0.1512688,0.42261409,9.6186,03/01.0/2026,2000,g 14.0,4.0
# From MPC191617
262P/McNaught-Russell,e,29.2474,217.8544,171.0930,6.869920,0.0547364,0.81564912,264.1639,03/01.0/2026,2000,g 13.5,4.0
# From MPC191617
263P/Gibbs,e,11.5264,105.5022,35.0341,3.040460,0.1859068,0.59424661,209.0931,03/01.0/2026,2000,g 18.0,4.0
# From MPC191617
264P/Larsen,e,25.5390,218.9564,341.4319,4.039012,0.1214203,0.33708004,313.0177,03/01.0/2026,2000,g 13.0,4.0
# From MPC191617
265P/LINEAR,e,14.3306,342.8724,33.6064,4.261823,0.1120240,0.64635121,206.9076,03/01.0/2026,2000,g 14.5,4.0
# From MPC191618
266P/Christensen,e,3.4285,4.9831,97.8223,3.527707,0.1487529,0.34067394,318.0662,03/01.0/2026,2000,g 12.5,4.0
# From MPC191618
267P/LONEOS,e,6.1404,228.3581,114.2766,3.204411,0.1718232,0.61585357,115.9372,03/01.0/2026,2000,g 19.5,4.0
# From MPC191618
268P/Bernardi,e,15.6613,125.6288,0.0531,4.592727,0.1001378,0.47455760,43.8033,03/01.0/2026,2000,g 14.0,4.0
# From MPC191618
269P/Jedicke,e,7.0825,241.7448,225.7971,7.056595,0.0525789,0.43370251,218.5652,03/01.0/2026,2000,g 10.0,4.0
# From MPC191618
270P/Gehrels,e,2.9246,223.0232,209.9692,6.647239,0.0575098,0.47010340,266.2425,03/01.0/2026,2000,g  8.0,4.0
# From MPC191618
271P/vanHouten-Lemmon,e,6.8632,9.2158,36.6945,7.033124,0.0528423,0.39551669,242.9979,03/01.0/2026,2000,g 11.0,4.0
# From MPC191618
272P/NEAT,e,18.0834,109.4391,27.9060,4.462102,0.1045670,0.45567800,138.2430,03/01.0/2026,2000,g 16.0,2.0
# From MPC191618
273P/Pons-Gambart,e,136.1891,320.3436,20.0914,31.88626,0.0054739,0.97476145,0.0000,12/22.2909/2012,2000,g 11.5,4.0
# From MPC191618
274P/Tombaugh-Tenagra,e,15.8185,81.3145,38.5227,4.378733,0.1075676,0.44033446,152.8936,03/01.0/2026,2000,g 13.0,4.0
# From MPC191618
275P/Hermann,e,21.2490,348.7175,173.8344,5.801749,0.0705287,0.71400792,343.0089,03/01.0/2026,2000,g 15.0,4.0
# From MPC191619
276P/Vorobjov,e,14.7250,210.8452,199.9229,5.389270,0.0787788,0.27667729,34.9336,03/01.0/2026,2000,g 11.5,4.0
# From MPC191619
277P/LINEAR,e,16.7928,276.2598,152.4531,3.853510,0.1302925,0.50626486,245.5797,03/01.0/2026,2000,g 14.0,4.0
# From MPC191619
278P/McNaught,e,6.6462,10.6669,243.3469,3.613861,0.1434653,0.45478729,279.1666,03/01.0/2026,2000,g 14.0,4.0
# From MPC191619
279P/LaSagra,e,5.0551,346.0919,5.5632,3.566361,0.1463410,0.39975377,153.2824,03/01.0/2026,2000,g 14.0,4.0
# From MPC191619
280P/Larsen,e,11.7753,131.3772,104.5810,4.522640,0.1024746,0.41704623,96.2847,03/01.0/2026,2000,g 12.5,4.0
# From MPC191619
281P/MOSS,e,4.7174,87.1683,27.1577,4.888988,0.0911750,0.17390143,102.0906,03/01.0/2026,2000,g 11.0,4.0
# From MPC191619
283P/Spacewatch,e,14.4714,161.1279,22.1534,4.130376,0.1174139,0.48546342,191.8123,03/01.0/2026,2000,g 16.0,2.0
# From MPC191619
284P/McNaught,e,11.8515,144.2589,202.4342,3.679763,0.1396286,0.37410646,227.9670,03/01.0/2026,2000,g 13.0,4.0
# From MPC191619
